{"type": "FeatureCollection", "features": [{"type": "Feature", "properties": {"norad_id": 22675, "name": "COSMOS 2251", "group": "cosmos-2251-debris", "lat": 12.627533346822796, "lon": -60.47773448109102, "alt_km": 764.4044324423512, "timestamp": "2025-12-23T16:57:12.747083+00:00", "meta": {"OBJECT_NAME": "COSMOS 2251", "OBJECT_ID": "1993-036A", "EPOCH": "2025-12-23T05:09:57.816000", "MEAN_MOTION": 14.33207818, "ECCENTRICITY": 0.0024382, "INCLINATION": 74.0401, "RA_OF_ASC_NODE": 296.7434, "ARG_OF_PERICENTER": 16.1219, "MEAN_ANOMALY": 344.0703, "EPHEMERIS_TYPE": 0, "CLASSIFICATION_TYPE": "U", "NORAD_CAT_ID": 22675, "ELEMENT_SET_NO": 999, "REV_AT_EPOCH": 69923, "BSTAR": 5.4153773e-05, "MEAN_MOTION_DOT": 1.23e-06, "MEAN_MOTION_DDOT": 0}, "tle": {"line1": "1 22675U 93036A   25357.21525250  .00000123  00000+0  54154-4 0  9995", "line2": "2 22675  74.0401 296.7434 0024382  16.1219 344.0703 14.33207818699231"}}, "geometry": {"type": "Point", "coordinates": [-60.47773448109102, 12.627533346822796]}}, {"type": "Feature", "properties": {"norad_id": 33757, "name": "COSMOS 2251 DEB", "group": "cosmos-2251-debris", "lat": 26.393014011545414, "lon": -48.244703704717146, "alt_km": 778.4152358088122, "timestamp": "2025-12-23T16:57:12.747108+00:00", "meta": {"OBJECT_NAME": "COSMOS 2251 DEB", "OBJECT_ID": "1993-036E", "EPOCH": "2025-12-23T05:38:22.315200", "MEAN_MOTION": 14.32583536, "ECCENTRICITY": 0.00156049, "INCLINATION": 74.0375, "RA_OF_ASC_NODE": 304.4497, "ARG_OF_PERICENTER": 316.0637, "MEAN_ANOMALY": 161.1389, "EPHEMERIS_TYPE": 0, "CLASSIFICATION_TYPE": "U", "NORAD_CAT_ID": 33757, "ELEMENT_SET_NO": 999, "REV_AT_EPOCH": 88146, "BSTAR": 4.4854718e-05, "MEAN_MOTION_DOT": 9.6e-07, "MEAN_MOTION_DDOT": 0}, "tle": {"line1": "1 33757U 93036E   25357.23498050  .00000096  00000+0  44855-4 0  9993", "line2": "2 33757  74.0375 304.4497 0015604 316.0637 161.1389 14.32583536881462"}}, "geometry": {"type": "Point", "coordinates": [-48.244703704717146, 26.393014011545414]}}, {"type": "Feature", "properties": {"norad_id": 33758, "name": "COSMOS 2251 DEB", "group": "cosmos-2251-debris", "lat": 3.9732598908221104, "lon": -164.48688979282957, "alt_km": 725.2791967136709, "timestamp": "2025-12-23T16:57:12.747124+00:00", "meta": {"OBJECT_NAME": "COSMOS 2251 DEB", "OBJECT_ID": "1993-036F", "EPOCH": "2025-12-23T01:09:51.994080", "MEAN_MOTION": 14.51650376, "ECCENTRICITY": 0.00171685, "INCLINATION": 74.0263, "RA_OF_ASC_NODE": 195.612, "ARG_OF_PERICENTER": 261.6339, "MEAN_ANOMALY": 265.7832, "EPHEMERIS_TYPE": 0, "CLASSIFICATION_TYPE": "U", "NORAD_CAT_ID": 33758, "ELEMENT_SET_NO": 999, "REV_AT_EPOCH": 88454, "BSTAR": 0.0007157202, "MEAN_MOTION_DOT": 2.848e-05, "MEAN_MOTION_DDOT": 0}, "tle": {"line1": "1 33758U 93036F   25357.04851845  .00002848  00000+0  71572-3 0  9990", "line2": "2 33758  74.0263 195.6120 0017168 261.6339 265.7832 14.51650376884547"}}, "geometry": {"type": "Point", "coordinates": [-164.48688979282957, 3.9732598908221104]}}, {"type": "Feature", "properties": {"norad_id": 33760, "name": "COSMOS 2251 DEB", "group": "cosmos-2251-debris", "lat": 35.19882004542951, "lon": -87.01721047612997, "alt_km": 758.9275550099055, "timestamp": "2025-12-23T16:57:12.747136+00:00", "meta": {"OBJECT_NAME": "COSMOS 2251 DEB", "OBJECT_ID": "1993-036H", "EPOCH": "2025-12-22T21:02:32.223840", "MEAN_MOTION": 14.35679105, "ECCENTRICITY": 0.0020311, "INCLINATION": 74.032, "RA_OF_ASC_NODE": 262.8525, "ARG_OF_PERICENTER": 358.761, "MEAN_ANOMALY": 71.8128, "EPHEMERIS_TYPE": 0, "CLASSIFICATION_TYPE": "U", "NORAD_CAT_ID": 33760, "ELEMENT_SET_NO": 999, "REV_AT_EPOCH": 88270, "BSTAR": 0.00010423, "MEAN_MOTION_DOT": 2.75e-06, "MEAN_MOTION_DDOT": 0}, "tle": {"line1": "1 33760U 93036H   25356.87676185  .00000275  00000+0  10423-3 0  9995", "line2": "2 33760  74.0320 262.8525 0020311 358.7610  71.8128 14.35679105882707"}}, "geometry": {"type": "Point", "coordinates": [-87.01721047612997, 35.19882004542951]}}, {"type": "Feature", "properties": {"norad_id": 33761, "name": "COSMOS 2251 DEB", "group": "cosmos-2251-debris", "lat": -53.65341983050462, "lon": 74.71183121009119, "alt_km": 751.8995296441008, "timestamp": "2025-12-23T16:57:12.747148+00:00", "meta": {"OBJECT_NAME": "COSMOS 2251 DEB", "OBJECT_ID": "1993-036J", "EPOCH": "2025-12-21T22:19:07.214304", "MEAN_MOTION": 14.42569564, "ECCENTRICITY": 0.00232733, "INCLINATION": 74.0352, "RA_OF_ASC_NODE": 235.1119, "ARG_OF_PERICENTER": 314.0482, "MEAN_ANOMALY": 61.202, "EPHEMERIS_TYPE": 0, "CLASSIFICATION_TYPE": "U", "NORAD_CAT_ID": 33761, "ELEMENT_SET_NO": 999, "REV_AT_EPOCH": 88367, "BSTAR": 0.00034386212, "MEAN_MOTION_DOT": 1.118e-05, "MEAN_MOTION_DDOT": 0}, "tle": {"line1": "1 33761U 93036J   25355.92994461  .00001118  00000+0  34386-3 0  9992", "line2": "2 33761  74.0352 235.1119 0023273 314.0482  61.2020 14.42569564883673"}}, "geometry": {"type": "Point", "coordinates": [74.71183121009119, -53.65341983050462]}}, {"type": "Feature", "properties": {"norad_id": 33762, "name": "COSMOS 2251 DEB", "group": "cosmos-2251-debris", "lat": -68.39280414168063, "lon": 156.2327578032982, "alt_km": 787.0793754773231, "timestamp": "2025-12-23T16:57:12.747159+00:00", "meta": {"OBJECT_NAME": "COSMOS 2251 DEB", "OBJECT_ID": "1993-036K", "EPOCH": "2025-12-23T04:34:30.077760", "MEAN_MOTION": 14.33666823, "ECCENTRICITY": 0.00154283, "INCLINATION": 74.0421, "RA_OF_ASC_NODE": 290.9199, "ARG_OF_PERICENTER": 349.8402, "MEAN_ANOMALY": 124.6208, "EPHEMERIS_TYPE": 0, "CLASSIFICATION_TYPE": "U", "NORAD_CAT_ID": 33762, "ELEMENT_SET_NO": 999, "REV_AT_EPOCH": 88197, "BSTAR": 5.3854652e-05, "MEAN_MOTION_DOT": 1.23e-06, "MEAN_MOTION_DDOT": 0}, "tle": {"line1": "1 33762U 93036K   25357.19062590  .00000123  00000+0  53855-4 0  9991", "line2": "2 33762  74.0421 290.9199 0015428 349.8402 124.6208 14.33666823881978"}}, "geometry": {"type": "Point", "coordinates": [156.2327578032982, -68.39280414168063]}}, {"type": "Feature", "properties": {"norad_id": 33764, "name": "COSMOS 2251 DEB", "group": "cosmos-2251-debris", "lat": -73.63624343341836, "lon": 149.58265394658548, "alt_km": 756.2956124055472, "timestamp": "2025-12-23T16:57:12.747170+00:00", "meta": {"OBJECT_NAME": "COSMOS 2251 DEB", "OBJECT_ID": "1993-036M", "EPOCH": "2025-12-23T04:47:58.528608", "MEAN_MOTION": 14.39530631, "ECCENTRICITY": 0.00234707, "INCLINATION": 74.0332, "RA_OF_ASC_NODE": 253.342, "ARG_OF_PERICENTER": 217.1003, "MEAN_ANOMALY": 305.76, "EPHEMERIS_TYPE": 0, "CLASSIFICATION_TYPE": "U", "NORAD_CAT_ID": 33764, "ELEMENT_SET_NO": 999, "REV_AT_EPOCH": 88307, "BSTAR": 0.00027133793, "MEAN_MOTION_DOT": 8.23e-06, "MEAN_MOTION_DDOT": 0}, "tle": {"line1": "1 33764U 93036M   25357.19998297  .00000823  00000+0  27134-3 0  9992", "line2": "2 33764  74.0332 253.3420 0023470 217.1003 305.7600 14.39530631883075"}}, "geometry": {"type": "Point", "coordinates": [149.58265394658548, -73.63624343341836]}}, {"type": "Feature", "properties": {"norad_id": 33765, "name": "COSMOS 2251 DEB", "group": "cosmos-2251-debris", "lat": 6.616148928486677, "lon": 152.32630763915597, "alt_km": 562.6308416855836, "timestamp": "2025-12-23T16:57:12.747181+00:00", "meta": {"OBJECT_NAME": "COSMOS 2251 DEB", "OBJECT_ID": "1993-036N", "EPOCH": "2025-12-23T04:59:08.598624", "MEAN_MOTION": 15.10538006, "ECCENTRICITY": 0.00649057, "INCLINATION": 74.009, "RA_OF_ASC_NODE": 151.4516, "ARG_OF_PERICENTER": 241.8707, "MEAN_ANOMALY": 293.9919, "EPHEMERIS_TYPE": 0, "CLASSIFICATION_TYPE": "U", "NORAD_CAT_ID": 33765, "ELEMENT_SET_NO": 999, "REV_AT_EPOCH": 89776, "BSTAR": 0.0016016537, "MEAN_MOTION_DOT": 0.00027841, "MEAN_MOTION_DDOT": 0}, "tle": {"line1": "1 33765U 93036N   25357.20773841  .00027841  00000+0  16017-2 0  9997", "line2": "2 33765  74.0090 151.4516 0064905 241.8707 293.9919 15.10538006897760"}}, "geometry": {"type": "Point", "coordinates": [152.32630763915597, 6.616148928486677]}}, {"type": "Feature", "properties": {"norad_id": 33766, "name": "COSMOS 2251 DEB", "group": "cosmos-2251-debris", "lat": 50.06752300150993, "lon": -84.7252851891072, "alt_km": 816.0572149422378, "timestamp": "2025-12-23T16:57:12.747192+00:00", "meta": {"OBJECT_NAME": "COSMOS 2251 DEB", "OBJECT_ID": "1993-036P", "EPOCH": "2025-12-23T01:18:09.985536", "MEAN_MOTION": 14.34963042, "ECCENTRICITY": 0.00647075, "INCLINATION": 74.1859, "RA_OF_ASC_NODE": 116.2487, "ARG_OF_PERICENTER": 316.7893, "MEAN_ANOMALY": 42.8193, "EPHEMERIS_TYPE": 0, "CLASSIFICATION_TYPE": "U", "NORAD_CAT_ID": 33766, "ELEMENT_SET_NO": 999, "REV_AT_EPOCH": 87893, "BSTAR": 0.00049224445, "MEAN_MOTION_DOT": 1.409e-05, "MEAN_MOTION_DDOT": 0}, "tle": {"line1": "1 33766U 93036P   25357.05428224  .00001409  00000+0  49224-3 0  9992", "line2": "2 33766  74.1859 116.2487 0064707 316.7893  42.8193 14.34963042878939"}}, "geometry": {"type": "Point", "coordinates": [-84.7252851891072, 50.06752300150993]}}, {"type": "Feature", "properties": {"norad_id": 33768, "name": "COSMOS 2251 DEB", "group": "cosmos-2251-debris", "lat": -73.68038941591057, "lon": 124.83962161169545, "alt_km": 1009.863568933496, "timestamp": "2025-12-23T16:57:12.747203+00:00", "meta": {"OBJECT_NAME": "COSMOS 2251 DEB", "OBJECT_ID": "1993-036R", "EPOCH": "2025-12-23T00:25:49.926144", "MEAN_MOTION": 13.58463505, "ECCENTRICITY": 0.03667822, "INCLINATION": 74.0665, "RA_OF_ASC_NODE": 203.2798, "ARG_OF_PERICENTER": 358.7824, "MEAN_ANOMALY": 153.3031, "EPHEMERIS_TYPE": 0, "CLASSIFICATION_TYPE": "U", "NORAD_CAT_ID": 33768, "ELEMENT_SET_NO": 999, "REV_AT_EPOCH": 83435, "BSTAR": 0.00032770059, "MEAN_MOTION_DOT": 3.49e-06, "MEAN_MOTION_DDOT": 0}, "tle": {"line1": "1 33768U 93036R   25357.01793896  .00000349  00000+0  32770-3 0  9990", "line2": "2 33768  74.0665 203.2798 0366782 358.7824 153.3031 13.58463505834356"}}, "geometry": {"type": "Point", "coordinates": [124.83962161169545, -73.68038941591057]}}]}